[{"OBJECT_NAME":"KINEIS-5E","OBJECT_ID":"2024-219C","EPOCH":"2026-03-07T13:49:11.010432","MEAN_MOTION":14.72333595,"ECCENTRICITY":0.00032915,"INCLINATION":97.9584,"RA_OF_ASC_NODE":228.2449,"ARG_OF_PERICENTER":138.9639,"MEAN_ANOMALY":221.1817,"EPHEMERIS_TYPE":0,"CLASSIFICATION_TYPE":"U","NORAD_CAT_ID":62083,"ELEMENT_SET_NO":999,"REV_AT_EPOCH":6881,"BSTAR":0.00010094667,"MEAN_MOTION_DOT":5.9e-6,"MEAN_MOTION_DDOT":0},{"OBJECT_NAME":"KINEIS-5A","OBJECT_ID":"2024-219D","EPOCH":"2026-03-07T16:12:59.940000","MEAN_MOTION":14.72181391,"ECCENTRICITY":0.00018628,"INCLINATION":97.9755,"RA_OF_ASC_NODE":228.4469,"ARG_OF_PERICENTER":206.4565,"MEAN_ANOMALY":153.6548,"EPHEMERIS_TYPE":0,"CLASSIFICATION_TYPE":"U","NORAD_CAT_ID":62084,"ELEMENT_SET_NO":999,"REV_AT_EPOCH":6883,"BSTAR":0.0001992903,"MEAN_MOTION_DOT":1.207e-5,"MEAN_MOTION_DDOT":0},{"OBJECT_NAME":"KINEIS-5B","OBJECT_ID":"2024-219E","EPOCH":"2026-03-07T13:54:56.074752","MEAN_MOTION":14.78064026,"ECCENTRICITY":0.00013488,"INCLINATION":97.9942,"RA_OF_ASC_NODE":231.0793,"ARG_OF_PERICENTER":198.4287,"MEAN_ANOMALY":161.6875,"EPHEMERIS_TYPE":0,"CLASSIFICATION_TYPE":"U","NORAD_CAT_ID":62085,"ELEMENT_SET_NO":999,"REV_AT_EPOCH":6899,"BSTAR":0.00036924739,"MEAN_MOTION_DOT":2.617e-5,"MEAN_MOTION_DDOT":0},{"OBJECT_NAME":"KINEIS-2C","OBJECT_ID":"2025-028B","EPOCH":"2026-03-07T14:53:21.074784","MEAN_MOTION":14.72309878,"ECCENTRICITY":0.00011088,"INCLINATION":98.0278,"RA_OF_ASC_NODE":121.813,"ARG_OF_PERICENTER":37.276,"MEAN_ANOMALY":322.8524,"EPHEMERIS_TYPE":0,"CLASSIFICATION_TYPE":"U","NORAD_CAT_ID":62929,"ELEMENT_SET_NO":999,"REV_AT_EPOCH":5766,"BSTAR":0.0002932004,"MEAN_MOTION_DOT":1.804e-5,"MEAN_MOTION_DDOT":0},{"OBJECT_NAME":"KINEIS-2D","OBJECT_ID":"2025-028C","EPOCH":"2026-03-07T14:27:44.686656","MEAN_MOTION":14.7533414,"ECCENTRICITY":0.00039722,"INCLINATION":97.9411,"RA_OF_ASC_NODE":120.9713,"ARG_OF_PERICENTER":151.3216,"MEAN_ANOMALY":208.8212,"EPHEMERIS_TYPE":0,"CLASSIFICATION_TYPE":"U","NORAD_CAT_ID":62930,"ELEMENT_SET_NO":999,"REV_AT_EPOCH":5773,"BSTAR":0.00038181708,"MEAN_MOTION_DOT":2.539e-5,"MEAN_MOTION_DDOT":0},{"OBJECT_NAME":"KINEIS-2E","OBJECT_ID":"2025-028D","EPOCH":"2026-03-07T14:19:28.692768","MEAN_MOTION":14.76707592,"ECCENTRICITY":0.00018936,"INCLINATION":97.9086,"RA_OF_ASC_NODE":120.3555,"ARG_OF_PERICENTER":112.3567,"MEAN_ANOMALY":247.7844,"EPHEMERIS_TYPE":0,"CLASSIFICATION_TYPE":"U","NORAD_CAT_ID":62931,"ELEMENT_SET_NO":999,"REV_AT_EPOCH":5778,"BSTAR":0.00029527267,"MEAN_MOTION_DOT":2.017e-5,"MEAN_MOTION_DDOT":0},{"OBJECT_NAME":"KINEIS-2A","OBJECT_ID":"2025-028E","EPOCH":"2026-03-06T10:12:03.163968","MEAN_MOTION":14.72089613,"ECCENTRICITY":0.00034484,"INCLINATION":98.0729,"RA_OF_ASC_NODE":120.9524,"ARG_OF_PERICENTER":203.6513,"MEAN_ANOMALY":156.4536,"EPHEMERIS_TYPE":0,"CLASSIFICATION_TYPE":"U","NORAD_CAT_ID":62932,"ELEMENT_SET_NO":999,"REV_AT_EPOCH":5748,"BSTAR":0.00025649134,"MEAN_MOTION_DOT":1.563e-5,"MEAN_MOTION_DDOT":0},{"OBJECT_NAME":"KINEIS-2B","OBJECT_ID":"2025-028G","EPOCH":"2026-03-07T14:27:46.150272","MEAN_MOTION":14.7310819,"ECCENTRICITY":0.00049081,"INCLINATION":97.9797,"RA_OF_ASC_NODE":121.2691,"ARG_OF_PERICENTER":113.4569,"MEAN_ANOMALY":246.7155,"EPHEMERIS_TYPE":0,"CLASSIFICATION_TYPE":"U","NORAD_CAT_ID":62934,"ELEMENT_SET_NO":999,"REV_AT_EPOCH":5770,"BSTAR":0.00029430366,"MEAN_MOTION_DOT":1.846e-5,"MEAN_MOTION_DDOT":0},{"OBJECT_NAME":"KINEIS-4E","OBJECT_ID":"2025-056A","EPOCH":"2026-03-07T13:54:32.048640","MEAN_MOTION":14.72355669,"ECCENTRICITY":8.089e-5,"INCLINATION":97.9938,"RA_OF_ASC_NODE":192.9221,"ARG_OF_PERICENTER":183.5536,"MEAN_ANOMALY":176.5666,"EPHEMERIS_TYPE":0,"CLASSIFICATION_TYPE":"U","NORAD_CAT_ID":63300,"ELEMENT_SET_NO":999,"REV_AT_EPOCH":5217,"BSTAR":0.00055935176,"MEAN_MOTION_DOT":3.491e-5,"MEAN_MOTION_DDOT":0},{"OBJECT_NAME":"KINEIS-4C","OBJECT_ID":"2025-056B","EPOCH":"2026-03-05T21:25:51.278304","MEAN_MOTION":14.72336552,"ECCENTRICITY":3.554e-5,"INCLINATION":97.9972,"RA_OF_ASC_NODE":191.4275,"ARG_OF_PERICENTER":67.1158,"MEAN_ANOMALY":293.0087,"EPHEMERIS_TYPE":0,"CLASSIFICATION_TYPE":"U","NORAD_CAT_ID":63301,"ELEMENT_SET_NO":999,"REV_AT_EPOCH":5193,"BSTAR":0.00050581047,"MEAN_MOTION_DOT":3.151e-5,"MEAN_MOTION_DDOT":0},{"OBJECT_NAME":"KINEIS-4D","OBJECT_ID":"2025-056C","EPOCH":"2026-03-06T18:45:21.580128","MEAN_MOTION":14.72312976,"ECCENTRICITY":5.432e-5,"INCLINATION":97.9938,"RA_OF_ASC_NODE":192.279,"ARG_OF_PERICENTER":307.7249,"MEAN_ANOMALY":52.3909,"EPHEMERIS_TYPE":0,"CLASSIFICATION_TYPE":"U","NORAD_CAT_ID":63302,"ELEMENT_SET_NO":999,"REV_AT_EPOCH":5206,"BSTAR":0.00055184164,"MEAN_MOTION_DOT":3.44e-5,"MEAN_MOTION_DDOT":0},{"OBJECT_NAME":"KINEIS-4A","OBJECT_ID":"2025-056D","EPOCH":"2026-03-05T22:20:55.996224","MEAN_MOTION":14.72296229,"ECCENTRICITY":0.00016399,"INCLINATION":97.9935,"RA_OF_ASC_NODE":191.3695,"ARG_OF_PERICENTER":259.3732,"MEAN_ANOMALY":100.7291,"EPHEMERIS_TYPE":0,"CLASSIFICATION_TYPE":"U","NORAD_CAT_ID":63303,"ELEMENT_SET_NO":999,"REV_AT_EPOCH":5193,"BSTAR":-0.00014085258,"MEAN_MOTION_DOT":-9.39e-6,"MEAN_MOTION_DDOT":0},{"OBJECT_NAME":"KINEIS-4B","OBJECT_ID":"2025-056E","EPOCH":"2026-03-07T14:43:12.880992","MEAN_MOTION":14.72296065,"ECCENTRICITY":0.00023402,"INCLINATION":97.9938,"RA_OF_ASC_NODE":193.0692,"ARG_OF_PERICENTER":196.0419,"MEAN_ANOMALY":164.0715,"EPHEMERIS_TYPE":0,"CLASSIFICATION_TYPE":"U","NORAD_CAT_ID":63304,"ELEMENT_SET_NO":999,"REV_AT_EPOCH":5217,"BSTAR":0.00049371824,"MEAN_MOTION_DOT":3.071e-5,"MEAN_MOTION_DDOT":0}]
