KINEIS-5E               
1 62083U 24219C   26066.57582188  .00000590  00000+0  10095-3 0  9992
2 62083  97.9584 228.2449 0003291 138.9639 221.1817 14.72333595 68815
KINEIS-5A               
1 62084U 24219D   26066.67569375  .00001207  00000+0  19929-3 0  9998
2 62084  97.9755 228.4469 0001862 206.4565 153.6548 14.72181391 68838
KINEIS-5B               
1 62085U 24219E   26066.57981568  .00002617  00000+0  36925-3 0  9991
2 62085  97.9942 231.0793 0001348 198.4287 161.6875 14.78064026 68997
KINEIS-2C               
1 62929U 25028B   26066.62038281  .00001804  00000+0  29320-3 0  9996
2 62929  98.0278 121.8130 0001108  37.2760 322.8524 14.72309878 57664
KINEIS-2D               
1 62930U 25028C   26066.60260054  .00002539  00000+0  38182-3 0  9993
2 62930  97.9411 120.9713 0003972 151.3216 208.8212 14.75334140 57733
KINEIS-2E               
1 62931U 25028D   26066.59685987  .00002017  00000+0  29527-3 0  9992
2 62931  97.9086 120.3555 0001893 112.3567 247.7844 14.76707592 57780
KINEIS-2A               
1 62932U 25028E   26065.42503662  .00001563  00000+0  25649-3 0  9999
2 62932  98.0729 120.9524 0003448 203.6513 156.4536 14.72089613 57486
KINEIS-2B               
1 62934U 25028G   26066.60261748  .00001846  00000+0  29430-3 0  9994
2 62934  97.9797 121.2691 0004908 113.4569 246.7155 14.73108190 57709
KINEIS-4E               
1 63300U 25056A   26066.57953760  .00003491  00000+0  55935-3 0  9998
2 63300  97.9938 192.9221 0000808 183.5536 176.5666 14.72355669 52172
KINEIS-4C               
1 63301U 25056B   26064.89295461  .00003151  00000+0  50581-3 0  9994
2 63301  97.9972 191.4275 0000355  67.1158 293.0087 14.72336552 51933
KINEIS-4D               
1 63302U 25056C   26065.78149977  .00003440  00000+0  55184-3 0  9999
2 63302  97.9938 192.2790 0000543 307.7249  52.3909 14.72312976 52068
KINEIS-4A               
1 63303U 25056D   26064.93120366 -.00000939  00000+0 -14085-3 0  9994
2 63303  97.9935 191.3695 0001639 259.3732 100.7291 14.72296229 51935
KINEIS-4B               
1 63304U 25056E   26066.61334353  .00003071  00000+0  49372-3 0  9990
2 63304  97.9938 193.0692 0002340 196.0419 164.0715 14.72296065 52173
